*******************************************************************************
Ephemeris / WWW_USER Thu Dec  5 18:35:42 2024 Pasadena, USA      / Horizons    
*******************************************************************************
Target body name: Titan (606)                     {source: sat441l}
Center body name: Earth (399)                     {source: DE441}
Center-site name: Mauna Kea
*******************************************************************************
Start time      : A.D. 2019-Jan-08 04:08:00.0000 UT      
Stop  time      : A.D. 2019-Jan-08 16:48:00.0000 UT      
Step-size       : 1 minutes
*******************************************************************************
Target pole/equ : IAU_TITAN                       {West-longitude positive}
Target radii    : 2575.15, 2574.78, 2574.47 km    {Equator_a, b, pole_c}       
Center geodetic : 204.5278, 19.8260847, 4.21024   {E-lon(deg),Lat(deg),Alt(km)}
Center cylindric: 204.5278, 6006.35451, 2151.0229 {E-lon(deg),Dxy(km),Dz(km)}
Center pole/equ : ITRF93                          {East-longitude positive}
Center radii    : 6378.137, 6378.137, 6356.752 km {Equator_a, b, pole_c}       
Target primary  : Saturn
Vis. interferer : MOON (R_eq= 1737.400) km        {source: DE441}
Rel. light bend : Sun                             {source: DE441}
Rel. lght bnd GM: 1.3271E+11 km^3/s^2                                          
Atmos refraction: NO (AIRLESS)
RA format       : HMS
Time format     : CAL 
Calendar mode   : Mixed Julian/Gregorian
RTS-only print  : NO       
EOP file        : eop.241205.p250303                                           
EOP coverage    : DATA-BASED 1962-JAN-20 TO 2024-DEC-05. PREDICTS-> 2025-MAR-02
Units conversion: 1 au= 149597870.700 km, c= 299792.458 km/s, 1 day= 86400.0 s 
Table cut-offs 1: Elevation (-90.0deg=NO ),Airmass (>38.000=NO), Daylight (YES)
Table cut-offs 2: Solar elongation (  0.0,180.0=NO ),Local Hour Angle( 0.0=NO )
Table cut-offs 3: RA/DEC angular rate (     0.0=NO )                           
*******************************************************************************
 Date__(UT)__HR:MN     R.A._________(ICRF)_________DEC
******************************************************
$$SOE
 2019-Jan-08 04:08 Cm  18 52 01.794614 -22 25 44.02534
 2019-Jan-08 04:09 Cm  18 52 01.815827 -22 25 44.01860
 2019-Jan-08 04:10 Cm  18 52 01.837041 -22 25 44.01186
 2019-Jan-08 04:11 Cm  18 52 01.858255 -22 25 44.00511
 2019-Jan-08 04:12 Cm  18 52 01.879469 -22 25 43.99837
 2019-Jan-08 04:13 Cm  18 52 01.900683 -22 25 43.99163
 2019-Jan-08 04:14 Cm  18 52 01.921897 -22 25 43.98488
 2019-Jan-08 04:15 Cm  18 52 01.943112 -22 25 43.97813
 2019-Jan-08 04:16 Cm  18 52 01.964326 -22 25 43.97139
 2019-Jan-08 04:17 Cm  18 52 01.985541 -22 25 43.96464
 2019-Jan-08 04:18 Cm  18 52 02.006756 -22 25 43.95789
 2019-Jan-08 04:19 Cm  18 52 02.027971 -22 25 43.95114
 2019-Jan-08 04:20 Cm  18 52 02.049186 -22 25 43.94438
 2019-Jan-08 04:21 Cm  18 52 02.070402 -22 25 43.93763
 2019-Jan-08 04:22 Cm  18 52 02.091617 -22 25 43.93088
 2019-Jan-08 04:23 Nm  18 52 02.112833 -22 25 43.92412
 2019-Jan-08 04:24 Nm  18 52 02.134049 -22 25 43.91737
 2019-Jan-08 04:25 Nm  18 52 02.155265 -22 25 43.91061
 2019-Jan-08 04:26 Nm  18 52 02.176481 -22 25 43.90386
 2019-Jan-08 04:27 Nm  18 52 02.197698 -22 25 43.89710
 2019-Jan-08 04:28 Nm  18 52 02.218914 -22 25 43.89034
 2019-Jan-08 04:29 Nm  18 52 02.240131 -22 25 43.88358
 2019-Jan-08 04:30 Nm  18 52 02.261348 -22 25 43.87682
 2019-Jan-08 04:31 Nm  18 52 02.282565 -22 25 43.87006
 2019-Jan-08 04:32 Nm  18 52 02.303782 -22 25 43.86330
 2019-Jan-08 04:33 Nm  18 52 02.324999 -22 25 43.85654
 2019-Jan-08 04:34 Nm  18 52 02.346217 -22 25 43.84977
 2019-Jan-08 04:35 Nm  18 52 02.367434 -22 25 43.84301
 2019-Jan-08 04:36 Nm  18 52 02.388652 -22 25 43.83625
 2019-Jan-08 04:37 Nm  18 52 02.409870 -22 25 43.82948
 2019-Jan-08 04:38 Nm  18 52 02.431088 -22 25 43.82272
 2019-Jan-08 04:39 Nm  18 52 02.452307 -22 25 43.81595
 2019-Jan-08 04:40 Nm  18 52 02.473525 -22 25 43.80918
 2019-Jan-08 04:41 Nm  18 52 02.494744 -22 25 43.80242
 2019-Jan-08 04:42 Nm  18 52 02.515962 -22 25 43.79565
 2019-Jan-08 04:43 Nm  18 52 02.537181 -22 25 43.78888
 2019-Jan-08 04:44 Nm  18 52 02.558400 -22 25 43.78212
 2019-Jan-08 04:45 Nm  18 52 02.579620 -22 25 43.77535
 2019-Jan-08 04:46 Nm  18 52 02.600839 -22 25 43.76858
 2019-Jan-08 04:47 Nm  18 52 02.622058 -22 25 43.76181
 2019-Jan-08 04:48 Nm  18 52 02.643278 -22 25 43.75504
 2019-Jan-08 04:49 Nm  18 52 02.664498 -22 25 43.74827
 2019-Jan-08 04:50 Am  18 52 02.685718 -22 25 43.74150
 2019-Jan-08 04:51 Am  18 52 02.706938 -22 25 43.73473
 2019-Jan-08 04:52 Am  18 52 02.728158 -22 25 43.72796
 2019-Jan-08 04:53 Am  18 52 02.749378 -22 25 43.72119
 2019-Jan-08 04:54 Am  18 52 02.770599 -22 25 43.71442
 2019-Jan-08 04:55 Am  18 52 02.791820 -22 25 43.70765
 2019-Jan-08 04:56 Am  18 52 02.813040 -22 25 43.70088
 2019-Jan-08 04:57 Am  18 52 02.834261 -22 25 43.69410
 2019-Jan-08 04:58 Am  18 52 02.855482 -22 25 43.68733
 2019-Jan-08 04:59 Am  18 52 02.876704 -22 25 43.68056
 2019-Jan-08 05:00 Am  18 52 02.897925 -22 25 43.67379
 2019-Jan-08 05:01 Am  18 52 02.919147 -22 25 43.66702
 2019-Jan-08 05:02 Am  18 52 02.940368 -22 25 43.66025
 2019-Jan-08 05:03 Am  18 52 02.961590 -22 25 43.65347
 2019-Jan-08 05:04 Am  18 52 02.982812 -22 25 43.64670
 2019-Jan-08 05:05 Am  18 52 03.004034 -22 25 43.63993
 2019-Jan-08 05:06 Am  18 52 03.025256 -22 25 43.63316
 2019-Jan-08 05:07 Am  18 52 03.046478 -22 25 43.62639
 2019-Jan-08 05:08 Am  18 52 03.067701 -22 25 43.61962
 2019-Jan-08 05:09 Am  18 52 03.088923 -22 25 43.61284
 2019-Jan-08 05:10 Am  18 52 03.110146 -22 25 43.60607
 2019-Jan-08 05:11 Am  18 52 03.131369 -22 25 43.59930
 2019-Jan-08 05:12 Am  18 52 03.152592 -22 25 43.59253
 2019-Jan-08 05:13 Am  18 52 03.173815 -22 25 43.58576
 2019-Jan-08 05:14 Am  18 52 03.195038 -22 25 43.57899
 2019-Jan-08 05:15 Am  18 52 03.216261 -22 25 43.57222
 2019-Jan-08 05:16 Am  18 52 03.237484 -22 25 43.56545
 2019-Jan-08 05:17  m  18 52 03.258708 -22 25 43.55868
 2019-Jan-08 05:18  m  18 52 03.279931 -22 25 43.55191
 2019-Jan-08 05:19  m  18 52 03.301155 -22 25 43.54514
 2019-Jan-08 05:20  m  18 52 03.322379 -22 25 43.53837
 2019-Jan-08 05:21  m  18 52 03.343603 -22 25 43.53161
 2019-Jan-08 05:22  m  18 52 03.364827 -22 25 43.52484
 2019-Jan-08 05:23  m  18 52 03.386051 -22 25 43.51807
 2019-Jan-08 05:24  m  18 52 03.407275 -22 25 43.51130
 2019-Jan-08 05:25  m  18 52 03.428500 -22 25 43.50454
 2019-Jan-08 05:26  m  18 52 03.449724 -22 25 43.49777
 2019-Jan-08 05:27  m  18 52 03.470949 -22 25 43.49101
 2019-Jan-08 05:28  m  18 52 03.492174 -22 25 43.48424
 2019-Jan-08 05:29  m  18 52 03.513398 -22 25 43.47748
 2019-Jan-08 05:30  m  18 52 03.534623 -22 25 43.47071
 2019-Jan-08 05:31  m  18 52 03.555848 -22 25 43.46395
 2019-Jan-08 05:32  m  18 52 03.577073 -22 25 43.45719
 2019-Jan-08 05:33  m  18 52 03.598298 -22 25 43.45043
 2019-Jan-08 05:34  m  18 52 03.619524 -22 25 43.44366
 2019-Jan-08 05:35  m  18 52 03.640749 -22 25 43.43690
 2019-Jan-08 05:36  m  18 52 03.661974 -22 25 43.43014
 2019-Jan-08 05:37  m  18 52 03.683200 -22 25 43.42338
 2019-Jan-08 05:38  m  18 52 03.704426 -22 25 43.41663
 2019-Jan-08 05:39  m  18 52 03.725651 -22 25 43.40987
 2019-Jan-08 05:40  m  18 52 03.746877 -22 25 43.40311
 2019-Jan-08 05:41  m  18 52 03.768103 -22 25 43.39635
 2019-Jan-08 05:42  m  18 52 03.789329 -22 25 43.38960
 2019-Jan-08 05:43  m  18 52 03.810555 -22 25 43.38284
 2019-Jan-08 05:44  m  18 52 03.831781 -22 25 43.37609
 2019-Jan-08 05:45  m  18 52 03.853007 -22 25 43.36934
 2019-Jan-08 05:46  m  18 52 03.874233 -22 25 43.36259
 2019-Jan-08 05:47  m  18 52 03.895459 -22 25 43.35584
 2019-Jan-08 05:48  m  18 52 03.916686 -22 25 43.34909
 2019-Jan-08 05:49  m  18 52 03.937912 -22 25 43.34234
 2019-Jan-08 05:50     18 52 03.959139 -22 25 43.33559
 2019-Jan-08 05:51     18 52 03.980365 -22 25 43.32884
 2019-Jan-08 05:52     18 52 04.001592 -22 25 43.32210
 2019-Jan-08 05:53     18 52 04.022818 -22 25 43.31535
 2019-Jan-08 05:54     18 52 04.044045 -22 25 43.30861
 2019-Jan-08 05:55     18 52 04.065272 -22 25 43.30186
 2019-Jan-08 05:56     18 52 04.086498 -22 25 43.29512
 2019-Jan-08 05:57     18 52 04.107725 -22 25 43.28838
 2019-Jan-08 05:58     18 52 04.128952 -22 25 43.28164
 2019-Jan-08 05:59     18 52 04.150179 -22 25 43.27490
 2019-Jan-08 06:00     18 52 04.171406 -22 25 43.26817
 2019-Jan-08 06:01     18 52 04.192633 -22 25 43.26143
 2019-Jan-08 06:02     18 52 04.213860 -22 25 43.25470
 2019-Jan-08 06:03     18 52 04.235087 -22 25 43.24796
 2019-Jan-08 06:04     18 52 04.256314 -22 25 43.24123
 2019-Jan-08 06:05     18 52 04.277541 -22 25 43.23450
 2019-Jan-08 06:06     18 52 04.298769 -22 25 43.22777
 2019-Jan-08 06:07     18 52 04.319996 -22 25 43.22104
 2019-Jan-08 06:08     18 52 04.341223 -22 25 43.21431
 2019-Jan-08 06:09     18 52 04.362450 -22 25 43.20759
 2019-Jan-08 06:10     18 52 04.383677 -22 25 43.20086
 2019-Jan-08 06:11     18 52 04.404905 -22 25 43.19414
 2019-Jan-08 06:12     18 52 04.426132 -22 25 43.18742
 2019-Jan-08 06:13     18 52 04.447359 -22 25 43.18070
 2019-Jan-08 06:14     18 52 04.468586 -22 25 43.17398
 2019-Jan-08 06:15     18 52 04.489814 -22 25 43.16726
 2019-Jan-08 06:16     18 52 04.511041 -22 25 43.16055
 2019-Jan-08 06:17     18 52 04.532268 -22 25 43.15383
 2019-Jan-08 06:18     18 52 04.553496 -22 25 43.14712
 2019-Jan-08 06:19     18 52 04.574723 -22 25 43.14041
 2019-Jan-08 06:20     18 52 04.595950 -22 25 43.13370
 2019-Jan-08 06:21     18 52 04.617177 -22 25 43.12699
 2019-Jan-08 06:22     18 52 04.638405 -22 25 43.12029
 2019-Jan-08 06:23     18 52 04.659632 -22 25 43.11358
 2019-Jan-08 06:24     18 52 04.680859 -22 25 43.10688
 2019-Jan-08 06:25     18 52 04.702086 -22 25 43.10018
 2019-Jan-08 06:26     18 52 04.723314 -22 25 43.09348
 2019-Jan-08 06:27     18 52 04.744541 -22 25 43.08678
 2019-Jan-08 06:28     18 52 04.765768 -22 25 43.08008
